0 DELTA 1 DEB
1 21363U 75052CH  13283.04216561  .00000243  00000-0  75677-3 0  4254
2 21363 099.7384 201.7698 0174584 199.6696 229.0860 13.09639288 70143
0 DELTA 1 DEB
1 21363U 75052CH  13285.79148182 -.00000117  00000-0 -20802-3 0  4264
2 21363 099.7390 204.2748 0174628 193.3006 231.3053 13.09643612 70505
0 DELTA 1 DEB
1 21363U 75052CH  13288.32399615 -.00000205  00000-0 -44613-3 0  4270
2 21363 099.7392 206.5823 0174714 187.4409 291.3971 13.09644644 70830
0 DELTA 1 DEB
1 21363U 75052CH  13290.68059191  .00000076  00000-0  30775-3 0  4283
2 21363 099.7392 208.7297 0174807 181.9978 242.0940 13.09641844 71145
0 DELTA 1 DEB
1 21363U 75052CH  13292.73575444  .00000352  00000-0  10495-2 0  4299
2 21363 099.7392 210.6025 0174883 177.2430 211.6112 13.09640161 71415
0 DELTA 1 DEB
1 21363U 75052CH  13295.35306826  .00000230  00000-0  72020-3 0  4306
2 21363 099.7393 212.9877 0174972 171.1907 311.4841 13.09642832 71759
